CCSDS_OMM_VERS = 2.0
CREATION_DATE  = 
ORIGINATOR     = 

OBJECT_NAME    = SL-16 R/B
OBJECT_ID      = 1992-093B
CENTER_NAME    = EARTH
REF_FRAME      = TEME
TIME_SYSTEM    = UTC
MEAN_ELEMENT_THEORY = SGP/SGP4

EPOCH          = 2025-11-12T06:50:07.043136
MEAN_MOTION    = 14.15423837
ECCENTRICITY   = .00028331
INCLINATION    = 71.0214
RA_OF_ASC_NODE = 250.7234
ARG_OF_PERICENTER = 155.2383
MEAN_ANOMALY   = 204.8877

EPHEMERIS_TYPE = 0
CLASSIFICATION_TYPE = U
NORAD_CAT_ID   = 22285
ELEMENT_SET_NO = 999
REV_AT_EPOCH   = 69654
BSTAR          = .24314686E-3
MEAN_MOTION_DOT = .427E-5
MEAN_MOTION_DDOT = 0

CCSDS_OMM_VERS = 2.0
CREATION_DATE  = 
ORIGINATOR     = 

OBJECT_NAME    = COSMOS 2228
OBJECT_ID      = 1992-094A
CENTER_NAME    = EARTH
REF_FRAME      = TEME
TIME_SYSTEM    = UTC
MEAN_ELEMENT_THEORY = SGP/SGP4

EPOCH          = 2025-11-12T06:28:13.952352
MEAN_MOTION    = 14.96524969
ECCENTRICITY   = .0017401
INCLINATION    = 82.5192
RA_OF_ASC_NODE = 349.6868
ARG_OF_PERICENTER = 342.2711
MEAN_ANOMALY   = 17.7901

EPHEMERIS_TYPE = 0
CLASSIFICATION_TYPE = U
NORAD_CAT_ID   = 22286
ELEMENT_SET_NO = 999
REV_AT_EPOCH   = 75849
BSTAR          = .43430859E-3
MEAN_MOTION_DOT = .4975E-4
MEAN_MOTION_DDOT = 0

CCSDS_OMM_VERS = 2.0
CREATION_DATE  = 
ORIGINATOR     = 

OBJECT_NAME    = SL-16 R/B
OBJECT_ID      = 1993-016B
CENTER_NAME    = EARTH
REF_FRAME      = TEME
TIME_SYSTEM    = UTC
MEAN_ELEMENT_THEORY = SGP/SGP4

EPOCH          = 2025-11-12T02:26:09.568896
MEAN_MOTION    = 14.15279647
ECCENTRICITY   = .00091445
INCLINATION    = 71.0056
RA_OF_ASC_NODE = 102.1493
ARG_OF_PERICENTER = 153.3770
MEAN_ANOMALY   = 206.7825

EPHEMERIS_TYPE = 0
CLASSIFICATION_TYPE = U
NORAD_CAT_ID   = 22566
ELEMENT_SET_NO = 999
REV_AT_EPOCH   = 68553
BSTAR          = .1433403E-3
MEAN_MOTION_DOT = .231E-5
MEAN_MOTION_DDOT = 0

CCSDS_OMM_VERS = 2.0
CREATION_DATE  = 
ORIGINATOR     = 

OBJECT_NAME    = COSMOS 2242
OBJECT_ID      = 1993-024A
CENTER_NAME    = EARTH
REF_FRAME      = TEME
TIME_SYSTEM    = UTC
MEAN_ELEMENT_THEORY = SGP/SGP4

EPOCH          = 2025-11-12T06:28:07.569984
MEAN_MOTION    = 14.95923850
ECCENTRICITY   = .00159032
INCLINATION    = 82.5213
RA_OF_ASC_NODE = 18.9615
ARG_OF_PERICENTER = 345.3821
MEAN_ANOMALY   = 14.6938

EPHEMERIS_TYPE = 0
CLASSIFICATION_TYPE = U
NORAD_CAT_ID   = 22626
ELEMENT_SET_NO = 999
REV_AT_EPOCH   = 76283
BSTAR          = .44120483E-3
MEAN_MOTION_DOT = .4975E-4
MEAN_MOTION_DDOT = 0

CCSDS_OMM_VERS = 2.0
CREATION_DATE  = 
ORIGINATOR     = 

OBJECT_NAME    = SL-16 R/B
OBJECT_ID      = 1993-059B
CENTER_NAME    = EARTH
REF_FRAME      = TEME
TIME_SYSTEM    = UTC
MEAN_ELEMENT_THEORY = SGP/SGP4

EPOCH          = 2025-11-12T05:46:29.162784
MEAN_MOTION    = 14.17205036
ECCENTRICITY   = .00161199
INCLINATION    = 70.9899
RA_OF_ASC_NODE = 258.7977
ARG_OF_PERICENTER = 22.0003
MEAN_ANOMALY   = 338.1810

EPHEMERIS_TYPE = 0
CLASSIFICATION_TYPE = U
NORAD_CAT_ID   = 22803
ELEMENT_SET_NO = 999
REV_AT_EPOCH   = 66289
BSTAR          = .21582621E-3
MEAN_MOTION_DOT = .388E-5
MEAN_MOTION_DDOT = 0

CCSDS_OMM_VERS = 2.0
CREATION_DATE  = 
ORIGINATOR     = 

OBJECT_NAME    = ARIANE 40 R/B
OBJECT_ID      = 1993-061H
CENTER_NAME    = EARTH
REF_FRAME      = TEME
TIME_SYSTEM    = UTC
MEAN_ELEMENT_THEORY = SGP/SGP4

EPOCH          = 2025-11-12T04:05:37.870080
MEAN_MOTION    = 14.32771293
ECCENTRICITY   = .00096148
INCLINATION    = 98.5113
RA_OF_ASC_NODE = 22.2515
ARG_OF_PERICENTER = 271.9691
MEAN_ANOMALY   = 88.0392

EPHEMERIS_TYPE = 0
CLASSIFICATION_TYPE = U
NORAD_CAT_ID   = 22830
ELEMENT_SET_NO = 999
REV_AT_EPOCH   = 67727
BSTAR          = .15894743E-3
MEAN_MOTION_DOT = .39E-5
MEAN_MOTION_DDOT = 0

CCSDS_OMM_VERS = 2.0
CREATION_DATE  = 
ORIGINATOR     = 

OBJECT_NAME    = COSMOS 2278
OBJECT_ID      = 1994-023A
CENTER_NAME    = EARTH
REF_FRAME      = TEME
TIME_SYSTEM    = UTC
MEAN_ELEMENT_THEORY = SGP/SGP4

EPOCH          = 2025-11-12T01:16:47.728416
MEAN_MOTION    = 14.14336502
ECCENTRICITY   = .00100478
INCLINATION    = 71.0539
RA_OF_ASC_NODE = 61.2078
ARG_OF_PERICENTER = 218.6774
MEAN_ANOMALY   = 141.3630

EPHEMERIS_TYPE = 0
CLASSIFICATION_TYPE = U
NORAD_CAT_ID   = 23087
ELEMENT_SET_NO = 999
REV_AT_EPOCH   = 62817
BSTAR          = .23963225E-3
MEAN_MOTION_DOT = .411E-5
MEAN_MOTION_DDOT = 0

CCSDS_OMM_VERS = 2.0
CREATION_DATE  = 
ORIGINATOR     = 

OBJECT_NAME    = SL-16 R/B
OBJECT_ID      = 1994-023B
CENTER_NAME    = EARTH
REF_FRAME      = TEME
TIME_SYSTEM    = UTC
MEAN_ELEMENT_THEORY = SGP/SGP4

EPOCH          = 2025-11-12T07:04:44.058432
MEAN_MOTION    = 14.14992660
ECCENTRICITY   = .00013909
INCLINATION    = 70.9996
RA_OF_ASC_NODE = 317.4228
ARG_OF_PERICENTER = 164.8083
MEAN_ANOMALY   = 195.3081

EPHEMERIS_TYPE = 0
CLASSIFICATION_TYPE = U
NORAD_CAT_ID   = 23088
ELEMENT_SET_NO = 999
REV_AT_EPOCH   = 62948
BSTAR          = -.44493996E-4
MEAN_MOTION_DOT = -.134E-5
MEAN_MOTION_DDOT = 0

CCSDS_OMM_VERS = 2.0
CREATION_DATE  = 
ORIGINATOR     = 

OBJECT_NAME    = SL-16 R/B
OBJECT_ID      = 1994-074B
CENTER_NAME    = EARTH
REF_FRAME      = TEME
TIME_SYSTEM    = UTC
MEAN_ELEMENT_THEORY = SGP/SGP4

EPOCH          = 2025-11-12T02:25:00.542208
MEAN_MOTION    = 14.79234884
ECCENTRICITY   = .00053094
INCLINATION    = 97.7242
RA_OF_ASC_NODE = 346.6173
ARG_OF_PERICENTER = 237.6831
MEAN_ANOMALY   = 184.9194

EPHEMERIS_TYPE = 0
CLASSIFICATION_TYPE = U
NORAD_CAT_ID   = 23343
ELEMENT_SET_NO = 999
REV_AT_EPOCH   = 66986
BSTAR          = .11301829E-3
MEAN_MOTION_DOT = .79E-5
MEAN_MOTION_DDOT = 0

CCSDS_OMM_VERS = 2.0
CREATION_DATE  = 
ORIGINATOR     = 

OBJECT_NAME    = SL-16 R/B
OBJECT_ID      = 1994-077B
CENTER_NAME    = EARTH
REF_FRAME      = TEME
TIME_SYSTEM    = UTC
MEAN_ELEMENT_THEORY = SGP/SGP4

EPOCH          = 2025-11-12T06:02:26.670048
MEAN_MOTION    = 14.15544486
ECCENTRICITY   = .00039267
INCLINATION    = 70.9829
RA_OF_ASC_NODE = 239.5498
ARG_OF_PERICENTER = 309.2934
MEAN_ANOMALY   = 50.7840

EPHEMERIS_TYPE = 0
CLASSIFICATION_TYPE = U
NORAD_CAT_ID   = 23405
ELEMENT_SET_NO = 999
REV_AT_EPOCH   = 59961
BSTAR          = .21112794E-3
MEAN_MOTION_DOT = .365E-5
MEAN_MOTION_DDOT = 0

CCSDS_OMM_VERS = 2.0
CREATION_DATE  = 
ORIGINATOR     = 

OBJECT_NAME    = ARIANE 40+ R/B
OBJECT_ID      = 1995-021B
CENTER_NAME    = EARTH
REF_FRAME      = TEME
TIME_SYSTEM    = UTC
MEAN_ELEMENT_THEORY = SGP/SGP4

EPOCH          = 2025-11-12T05:13:03.527616
MEAN_MOTION    = 14.39660090
ECCENTRICITY   = .00076733
INCLINATION    = 98.4687
RA_OF_ASC_NODE = 24.1699
ARG_OF_PERICENTER = 129.0770
MEAN_ANOMALY   = 247.3883

EPHEMERIS_TYPE = 0
CLASSIFICATION_TYPE = U
NORAD_CAT_ID   = 23561
ELEMENT_SET_NO = 999
REV_AT_EPOCH   = 60234
BSTAR          = .27822288E-3
MEAN_MOTION_DOT = .827E-5
MEAN_MOTION_DDOT = 0

CCSDS_OMM_VERS = 2.0
CREATION_DATE  = 
ORIGINATOR     = 

OBJECT_NAME    = SL-16 R/B
OBJECT_ID      = 1995-058B
CENTER_NAME    = EARTH
REF_FRAME      = TEME
TIME_SYSTEM    = UTC
MEAN_ELEMENT_THEORY = SGP/SGP4

EPOCH          = 2025-11-12T06:04:05.688768
MEAN_MOTION    = 14.15476821
ECCENTRICITY   = .00148289
INCLINATION    = 71.0225
RA_OF_ASC_NODE = 66.8084
ARG_OF_PERICENTER = 294.6506
MEAN_ANOMALY   = 65.3073

EPHEMERIS_TYPE = 0
CLASSIFICATION_TYPE = U
NORAD_CAT_ID   = 23705
ELEMENT_SET_NO = 999
REV_AT_EPOCH   = 55123
BSTAR          = .34492096E-4
MEAN_MOTION_DOT = .2E-6
MEAN_MOTION_DDOT = 0

