SL-16 R/B               
1 22285U 92093B   25316.28480374  .00000427  00000+0  24315-3 0  9995
2 22285  71.0214 250.7234 0002833 155.2383 204.8877 14.15423837696546
COSMOS 2228             
1 22286U 92094A   25316.26960593  .00004975  00000+0  43431-3 0  9993
2 22286  82.5192 349.6868 0017401 342.2711  17.7901 14.96524969758499
SL-16 R/B               
1 22566U 93016B   25316.10149964  .00000231  00000+0  14334-3 0  9994
2 22566  71.0056 102.1493 0009144 153.3770 206.7825 14.15279647685539
COSMOS 2242             
1 22626U 93024A   25316.26953206  .00004975  00000+0  44120-3 0  9994
2 22626  82.5213  18.9615 0015903 345.3821  14.6938 14.95923850762838
SL-16 R/B               
1 22803U 93059B   25316.24061531  .00000388  00000+0  21583-3 0  9990
2 22803  70.9899 258.7977 0016119  22.0003 338.1810 14.17205036662893
ARIANE 40 R/B           
1 22830U 93061H   25316.17057720  .00000390  00000+0  15895-3 0  9992
2 22830  98.5113  22.2515 0009614 271.9691  88.0392 14.32771293677274
COSMOS 2278             
1 23087U 94023A   25316.05333019  .00000411  00000+0  23963-3 0  9990
2 23087  71.0539  61.2078 0010047 218.6774 141.3630 14.14336502628179
SL-16 R/B               
1 23088U 94023B   25316.29495438 -.00000134  00000+0 -44494-4 0  9998
2 23088  70.9996 317.4228 0001390 164.8083 195.3081 14.14992660629481
SL-16 R/B               
1 23343U 94074B   25316.10070072  .00000790  00000+0  11302-3 0  9998
2 23343  97.7242 346.6173 0005309 237.6831 184.9194 14.79234884669866
SL-16 R/B               
1 23405U 94077B   25316.25169757  .00000365  00000+0  21113-3 0  9994
2 23405  70.9829 239.5498 0003926 309.2934  50.7840 14.15544486599617
ARIANE 40+ R/B          
1 23561U 95021B   25316.21740194  .00000827  00000+0  27822-3 0  9999
2 23561  98.4687  24.1699 0007673 129.0770 247.3883 14.39660090602349
SL-16 R/B               
1 23705U 95058B   25316.25284362  .00000020  00000+0  34492-4 0  9990
2 23705  71.0225  66.8084 0014828 294.6506  65.3073 14.15476821551232
